ONEWEB-0176             
1 48210U 21031A   25123.20859702  .00000282  00000+0  72640-3 0  9991
2 48210  87.9078  11.2500 0001780  79.7334 280.3996 13.14502150195749
ONEWEB-0184             
1 48211U 21031B   25123.18163990 -.00000150  00000+0 -43918-3 0  9998
2 48211  87.9076  11.2273 0000891  86.9137 273.2095 13.14503461194429
ONEWEB-0179             
1 48212U 21031C   25122.92397414  .00000077  00000+0  17316-3 0  9999
2 48212  87.9081  11.2940 0001891  83.2124 276.9221 13.14503705194437
ONEWEB-0180             
1 48213U 21031D   25123.18481246 -.00000110  00000+0 -33158-3 0  9998
2 48213  87.9076  11.2311 0001656  86.7927 273.3392 13.14504271194352
ONEWEB-0218             
1 48214U 21031E   25123.20701280  .00000299  00000+0  77255-3 0  9997
2 48214  87.9075  11.2278 0000992 106.1556 253.9683 13.14503333194514
ONEWEB-0209             
1 48215U 21031F   25123.19591072  .00000078  00000+0  17643-3 0  9992
2 48215  87.9078  11.2717 0001890  85.8907 274.2439 13.14502469194511
ONEWEB-0198             
1 48216U 21031G   25123.18005572 -.00000186  00000+0 -53640-3 0  9996
2 48216  87.9079  11.2770 0001585  92.0458 268.0853 13.14503537194602
ONEWEB-0189             
1 48217U 21031H   25123.19273871  .00000020  00000+0  18595-4 0  9993
2 48217  87.9075  11.2484 0001613  94.2224 265.9090 13.14502657194362
